SL-16 R/B               
1 23405U 94077B   26201.89797059  .00000220  00000+0  13670-3 0  9999
2 23405  70.9822  72.2414 0004171 299.0615  61.0090 14.15575667635084
ARIANE 40+ R/B          
1 23561U 95021B   26201.83835351  .00000141  00000+0  58618-4 0  9998
2 23561  98.4396 271.4246 0007943 102.4185  14.5041 14.39849600638408
SL-16 R/B               
1 23705U 95058B   26201.91135891  .00000272  00000+0  16341-3 0  9990
2 23705  71.0205 260.5541 0014712 275.5173  84.4272 14.15512143586702
SL-16 R/B               
1 24298U 96051B   26201.38726106  .00000138  00000+0  10147-3 0  9997
2 24298  70.7641 254.3896 0018151 291.3749  68.5434 14.12458573540380
ORBVIEW 2 (SEASTAR)     
1 24883U 97037A   26201.89359328  .00000122  00000+0  58610-4 0  9997
2 24883  98.8721   9.8523 0002868  49.2619 310.8814 14.35568498527589
SL-16 R/B               
1 25400U 98043G   26201.90049789  .00000016  00000+0  25897-4 0  9993
2 25400  98.8381 156.3532 0009751 355.0710   5.0372 14.26073332457978
SL-16 R/B               
1 25407U 98045B   26201.85692437  .00000114  00000+0  81876-4 0  9998
2 25407  71.0100 261.5219 0007874 198.2568 161.8274 14.16205360445954
ISS (ZARYA)             
1 25544U 98067A   26201.79846070  .00005574  00000+0  10900-3 0  9995
2 25544  51.6312 133.7599 0006835 319.3995  40.6483 15.49066413576965
CZ-4B R/B               
1 25732U 99025C   26201.72844492 -.00000004  00000+0  18772-4 0  9998
2 25732  98.6468 242.7200 0036364 323.5280 147.6809 14.18288244407024
OKEAN-O                 
1 25860U 99039A   26201.87046321  .00000317  00000+0  48145-4 0  9999
2 25860  97.9296 260.2785 0000892  98.5931 261.5383 14.80501320454093
SL-16 R/B               
1 25861U 99039B   26201.92853278  .00000280  00000+0  42132-4 0  9992
2 25861  97.9818 260.6920 0014790 179.5770 180.5458 14.81874341456599
DELTA 2 R/B             
1 25876U 99041E   26201.15936372  .00000873  00000+0  17946-3 0  9995
2 25876  51.7614 132.0599 0501486  19.4111 342.5189 14.12097369381741
HELIOS 1B               
1 25977U 99064A   26201.73291591  .00000661  00000+0  78216-4 0  9996
2 25977  98.1577 107.8394 0001667  48.4185 311.7173 14.88083179705049
TERRA                   
1 25994U 99068A   26201.91437725  .00000208  00000+0  51387-4 0  9997
2 25994  97.9437 250.1202 0003606 111.5815 300.9591 14.61126471414536
SL-16 R/B               
1 26070U 00006B   26201.62421005  .00000215  00000+0  13336-3 0  9998
2 26070  71.0007 178.3175 0017428 332.4700  27.5499 14.15839007367375
TITAN 4B R/B            
1 26474U 00047B   26201.90198319  .00001664  00000+0  10720-3 0  9994
2 26474  67.9874  25.6595 0045698 253.0472 106.5666 15.10351276413024
ENVISAT                 
1 27386U 02009A   26201.90294241  .00000045  00000+0  28345-4 0  9993
2 27386  98.3849 152.4727 0001302  82.0779 346.4966 14.39071591278337
IDEFIX & ARIANE 42P R/B 
1 27422U 02021B   26201.82949493  .00000119  00000+0  61733-4 0  9995
2 27422  98.5941 138.9490 0012243 150.2861 209.9020 14.31095413263064
AQUA                    
1 27424U 02022A   26201.92046237  .00000468  00000+0  10298-3 0  9999
2 27424  98.4300 171.8823 0001312 102.2922 279.2908 14.62133804288209
CZ-4B R/B               
1 27432U 02024C   26201.93095036  .00000001  00000+0  23582-4 0  9996
2 27432  98.8680 254.5286 0050179   5.7436 167.1079 14.14568757248078
MIDORI II (ADEOS-II)    
1 27597U 02056A   26201.87862982  .00000134  00000+0  70407-4 0  9993
2 27597  98.7897 161.4287 0001242  33.2623 326.8636 14.29364829229327
H-2A R/B                
1 27601U 02056E   26201.85735119  .00000162  00000+0  70955-4 0  9997
2 27601  98.3331 157.3080 0071163 124.2597 299.3953 14.33835923233196
CZ-4B R/B               
1 28059U 03049C   26201.92538029  .00000180  00000+0  52766-4 0  9997
2 28059  98.6914 202.1177 0047991 183.6874 176.3975 14.55118492205971
CZ-2C R/B               
1 28222U 04012C   26201.73470109  .00114680  00000+0  45311-3 0  9991
2 28222  97.7029 281.4913 0010766 174.9419 185.1962 15.86406800225206
SL-16 R/B               
1 28353U 04021B   26201.74942938 -.00000170  00000+0 -63837-4 0  9995
2 28353  71.0029 313.2528 0006127 220.1347 139.9324 14.14615938141651
CZ-4B R/B               
1 28415U 04035C   26201.73042764  .00004257  00000+0  14272-3 0  9992
2 28415  97.3355 234.4331 0029700 212.1984 147.7445 15.31035991200257
CZ-2C R/B               
1 28480U 04046B   26201.70740890  .00000062  00000+0  37826-4 0  9999
2 28480  98.1909 108.3875 0140398 121.1824 240.3210 14.27034373127473
ARIANE 5 R/B            
1 28499U 04049H   26201.74246524  .00000289  00000+0  38770-4 0  9991
2 28499  98.2748  15.2980 0082502 280.0168  79.1743 14.85482598165545
CZ-2D R/B               
1 28738U 05024B   26201.01402848  .00043179  00000+0  31493-3 0  9993
2 28738  97.3471 222.1705 0003254 179.1862 180.9408 15.73169832160493
ALOS (DAICHI)           
1 28931U 06002A   26201.85037942  .00000586  00000+0  10580-3 0  9995
2 28931  98.1340 157.3177 0000942 107.8973 252.2336 14.70108746 93048
