OBJECT_NAME,OBJECT_ID,EPOCH,MEAN_MOTION,ECCENTRICITY,INCLINATION,RA_OF_ASC_NODE,ARG_OF_PERICENTER,MEAN_ANOMALY,EPHEMERIS_TYPE,CLASSIFICATION_TYPE,NORAD_CAT_ID,ELEMENT_SET_NO,REV_AT_EPOCH,BSTAR,MEAN_MOTION_DOT,MEAN_MOTION_DDOT
SL-16 R/B,1994-077B,2026-07-20T21:33:04.658976,14.15575667,.00041718,70.9822,72.2414,299.0615,61.0090,0,U,23405,999,63508,.13670223E-3,.22E-5,0
ARIANE 40+ R/B,1995-021B,2026-07-20T20:07:13.743264,14.39849600,.00079438,98.4396,271.4246,102.4185,14.5041,0,U,23561,999,63840,.58618462E-4,.141E-5,0
SL-16 R/B,1995-058B,2026-07-20T21:52:21.409824,14.15512143,.00147126,71.0205,260.5541,275.5173,84.4272,0,U,23705,999,58670,.16341257E-3,.272E-5,0
SL-16 R/B,1996-051B,2026-07-20T09:17:39.355584,14.12458573,.0018151,70.7641,254.3896,291.3749,68.5434,0,U,24298,999,54038,.10147E-3,.138E-5,0
ORBVIEW 2 (SEASTAR),1997-037A,2026-07-20T21:26:46.459392,14.35568498,.00028682,98.8721,9.8523,49.2619,310.8814,0,U,24883,999,52758,.58610155E-4,.122E-5,0
SL-16 R/B,1998-043G,2026-07-20T21:36:43.017696,14.26073332,.00097511,98.8381,156.3532,355.0710,5.0372,0,U,25400,999,45797,.25896509E-4,.16E-6,0
SL-16 R/B,1998-045B,2026-07-20T20:33:58.265568,14.16205360,.00078743,71.0100,261.5219,198.2568,161.8274,0,U,25407,999,44595,.81875858E-4,.114E-5,0
ISS (ZARYA),1998-067A,2026-07-20T19:09:47.004480,15.49066413,.00068357,51.6312,133.7599,319.3995,40.6483,0,U,25544,999,57696,.10899996E-3,.5574E-4,0
CZ-4B R/B,1999-025C,2026-07-20T17:28:57.641088,14.18288244,.00363641,98.6468,242.7200,323.5280,147.6809,0,U,25732,999,40702,.18772241E-4,-.4E-7,0
OKEAN-O,1999-039A,2026-07-20T20:53:28.021344,14.80501320,.00008924,97.9296,260.2785,98.5931,261.5383,0,U,25860,999,45409,.4814486E-4,.317E-5,0
SL-16 R/B,1999-039B,2026-07-20T22:17:05.232192,14.81874341,.00147905,97.9818,260.6920,179.5770,180.5458,0,U,25861,999,45659,.42131805E-4,.28E-5,0
DELTA 2 R/B,1999-041E,2026-07-20T03:49:29.025408,14.12097369,.05014862,51.7614,132.0599,19.4111,342.5189,0,U,25876,999,38174,.17945554E-3,.873E-5,0
HELIOS 1B,1999-064A,2026-07-20T17:35:23.934624,14.88083179,.00016671,98.1577,107.8394,48.4185,311.7173,0,U,25977,999,70504,.78215889E-4,.661E-5,0
TERRA,1999-068A,2026-07-20T21:56:42.194400,14.61126471,.00036061,97.9437,250.1202,111.5815,300.9591,0,U,25994,999,41453,.51386552E-4,.208E-5,0
SL-16 R/B,2000-006B,2026-07-20T14:58:51.748320,14.15839007,.00174287,71.0007,178.3175,332.4700,27.5499,0,U,26070,999,36737,.13335978E-3,.215E-5,0
TITAN 4B R/B,2000-047B,2026-07-20T21:38:51.347616,15.10351276,.00456987,67.9874,25.6595,253.0472,106.5666,0,U,26474,999,41302,.10719561E-3,.1664E-4,0
ENVISAT,2002-009A,2026-07-20T21:40:14.224224,14.39071591,.00013028,98.3849,152.4727,82.0779,346.4966,0,U,27386,999,27833,.28345328E-4,.45E-6,0
IDEFIX & ARIANE 42P R/B,2002-021B,2026-07-20T19:54:28.361952,14.31095413,.00122439,98.5941,138.9490,150.2861,209.9020,0,U,27422,999,26306,.61733407E-4,.119E-5,0
AQUA,2002-022A,2026-07-20T22:05:27.948768,14.62133804,.00013125,98.4300,171.8823,102.2922,279.2908,0,U,27424,999,28820,.10298152E-3,.468E-5,0
CZ-4B R/B,2002-024C,2026-07-20T22:20:34.111104,14.14568757,.0050179,98.8680,254.5286,5.7436,167.1079,0,U,27432,999,24807,.23582237E-4,.1E-7,0
MIDORI II (ADEOS-II),2002-056A,2026-07-20T21:05:13.616448,14.29364829,.00012424,98.7897,161.4287,33.2623,326.8636,0,U,27597,999,22932,.70406721E-4,.134E-5,0
H-2A R/B,2002-056E,2026-07-20T20:34:35.142816,14.33835923,.00711634,98.3331,157.3080,124.2597,299.3953,0,U,27601,999,23319,.70955341E-4,.162E-5,0
CZ-4B R/B,2003-049C,2026-07-20T22:12:32.857056,14.55118492,.00479918,98.6914,202.1177,183.6874,176.3975,0,U,28059,999,20597,.52766183E-4,.18E-5,0
CZ-2C R/B,2004-012C,2026-07-20T17:37:58.174176,15.86406800,.00107662,97.7029,281.4913,174.9419,185.1962,0,U,28222,999,22520,.45311174E-3,.11468E-2,0
SL-16 R/B,2004-021B,2026-07-20T17:59:10.698432,14.14615938,.00061271,71.0029,313.2528,220.1347,139.9324,0,U,28353,999,14165,-.63837063E-4,-.17E-5,0
CZ-4B R/B,2004-035C,2026-07-20T17:31:48.948096,15.31035991,.00297007,97.3355,234.4331,212.1984,147.7445,0,U,28415,999,20025,.14271883E-3,.4257E-4,0
CZ-2C R/B,2004-046B,2026-07-20T16:58:40.128960,14.27034373,.0140398,98.1909,108.3875,121.1824,240.3210,0,U,28480,999,12747,.37826105E-4,.62E-6,0
ARIANE 5 R/B,2004-049H,2026-07-20T17:49:08.996736,14.85482598,.00825023,98.2748,15.2980,280.0168,79.1743,0,U,28499,999,16554,.38769505E-4,.289E-5,0
CZ-2D R/B,2005-024B,2026-07-20T00:20:12.060672,15.73169832,.00032546,97.3471,222.1705,179.1862,180.9408,0,U,28738,999,16049,.31492923E-3,.43179E-3,0
ALOS (DAICHI),2006-002A,2026-07-20T20:24:32.781888,14.70108746,.0000942,98.1340,157.3177,107.8973,252.2336,0,U,28931,999,9304,.1058026E-3,.586E-5,0
